      2.10          N: GNSS NAV DATA                        RINEX VERSION / TYPE
fic2rin                                 04/17/2021 00:17:20 PGM / RUN BY / DATE
                                                            END OF HEADER
16 21  4 16 22  0  0.0-3.107669763267e-04-5.911715561524e-12 0.000000000000e+00
    7.900000000000e+01 8.184375000000e+01 4.188745906652e-09-1.481578071891e+00
    4.252418875694e-06 1.224560150877e-02 4.597008228302e-06 5.153684810638e+03
    5.112000000000e+05 1.955777406693e-07 1.581407544566e+00-9.685754776001e-08
    9.739558734001e-01 2.906562500000e+02 6.735691402869e-01-7.955331371484e-09
    3.050127050035e-10 1.000000000000e+00 2.153000000000e+03 0.000000000000e+00
    2.400000000000e+00 0.000000000000e+00-1.024454832077e-08 7.900000000000e+01
    5.040000000000e+05 4.000000000000e+00
 9 21  4 16 22  0  0.0-3.393874503672e-04-2.728484105319e-12 0.000000000000e+00
    9.300000000000e+01-1.553125000000e+01 4.893060958486e-09-1.926300909433e+00
   -8.624047040939e-07 1.887694234028e-03 6.385147571564e-06 5.153796430588e+03
    5.112000000000e+05 2.793967723846e-08-6.199089891491e-01 6.519258022308e-08
    9.532513269497e-01 2.526250000000e+02 1.835244753973e+00-8.127481399366e-09
   -2.332240004300e-10 1.000000000000e+00 2.153000000000e+03 0.000000000000e+00
    2.400000000000e+00 0.000000000000e+00 1.396983861923e-09 9.300000000000e+01
    5.040000000000e+05 4.000000000000e+00
10 21  4 16 22  0  0.0-1.033879816532e-04-7.730704965070e-12 0.000000000000e+00
    6.100000000000e+01-8.125000000000e+00 4.403040547169e-09-3.523942022901e-01
   -5.699694156647e-07 6.569543038495e-03 7.707625627518e-06 5.153671321869e+03
    5.112000000000e+05 5.587935447693e-08-1.653063255806e+00 5.774199962616e-08
    9.684336531603e-01 2.345937500000e+02-2.563539124369e+00-7.988904198498e-09
    2.217949529358e-10 1.000000000000e+00 2.153000000000e+03 0.000000000000e+00
    2.400000000000e+00 0.000000000000e+00 2.328306436539e-09 6.100000000000e+01
    5.040000000000e+05 4.000000000000e+00
13 21  4 16 22  0  0.0 1.207706518471e-04 4.661160346586e-12 0.000000000000e+00
    4.800000000000e+01-1.303125000000e+01 4.394111603814e-09-2.985142548792e+00
   -6.072223186493e-07 4.911081166938e-03 6.858259439468e-06 5.153672819138e+03
    5.112000000000e+05 3.725290298462e-09-4.719257231549e-01 3.539025783539e-08
    9.682023219244e-01 2.512500000000e+02 9.881247002057e-01-7.756394513536e-09
   -1.950081228711e-10 1.000000000000e+00 2.153000000000e+03 0.000000000000e+00
    2.400000000000e+00 0.000000000000e+00-1.117587089539e-08 4.800000000000e+01
    5.040000000000e+05 4.000000000000e+00
27 21  4 16 22  0  0.0-1.139501109719e-04-6.821210263297e-12 0.000000000000e+00
    5.700000000000e+01-3.375000000000e+01 4.380539609915e-09-2.416309939979e+00
   -1.918524503708e-06 9.371660649776e-03 2.995133399963e-06 5.153682483673e+03
    5.112000000000e+05 1.322478055954e-07 2.538421998597e+00-2.048909664154e-07
    9.762384703308e-01 3.298437500000e+02 6.068008320789e-01-8.102480357972e-09
   -7.857470152314e-12 1.000000000000e+00 2.153000000000e+03 0.000000000000e+00
    2.400000000000e+00 0.000000000000e+00 1.862645149231e-09 5.700000000000e+01
    5.040000000000e+05 4.000000000000e+00
19 21  4 16 22  0  0.0-1.203920692205e-05 5.002220859751e-12 0.000000000000e+00
    3.600000000000e+01-4.203125000000e+01 4.372324982028e-09 9.248441554713e-02
   -2.115964889526e-06 9.185673086904e-03 3.399327397346e-06 5.153627197266e+03
    5.112000000000e+05-1.136213541031e-07 2.644071121775e+00-5.215406417847e-08
    9.809657891626e-01 3.270625000000e+02 1.810913190340e+00-8.319989418098e-09
   -1.185763677531e-10 1.000000000000e+00 2.153000000000e+03 0.000000000000e+00
    2.400000000000e+00 0.000000000000e+00-1.583248376846e-08 3.600000000000e+01
    5.040000000000e+05 4.000000000000e+00
25 21  4 16 22  0  0.0 1.198882237077e-04 7.275957614183e-12 0.000000000000e+00
    2.100000000000e+01 9.278125000000e+01 4.585905307078e-09 5.426842954935e-02
    4.792585968971e-06 9.926541359164e-03 6.206333637238e-06 5.153643501282e+03
    5.112000000000e+05-3.352761268616e-08 1.489611594359e+00 1.545995473862e-07
    9.612433244885e-01 2.655312500000e+02 9.640295909477e-01-8.282130698273e-09
    1.950081228711e-10 1.000000000000e+00 2.153000000000e+03 0.000000000000e+00
    2.400000000000e+00 0.000000000000e+00 5.587935447693e-09 2.100000000000e+01
    5.040000000000e+05 4.000000000000e+00
30 21  4 16 22  0  0.0-4.137745127082e-04-5.229594535194e-12 0.000000000000e+00
    7.400000000000e+01 4.503125000000e+01 4.785556480493e-09 9.788890043248e-01
    2.417713403702e-06 5.093815736473e-03 9.618699550629e-06 5.153722696304e+03
    5.112000000000e+05-4.284083843231e-08 4.701714664031e-01 1.005828380585e-07
    9.374394193146e-01 1.818437500000e+02-2.811491030435e+00-8.054264063856e-09
   -2.932264997750e-10 1.000000000000e+00 2.153000000000e+03 0.000000000000e+00
    2.400000000000e+00 0.000000000000e+00 3.725290298462e-09 7.400000000000e+01
    5.040000000000e+05 4.000000000000e+00
22 21  4 16 22  0  0.0-6.363014690578e-04 8.867573342286e-12 0.000000000000e+00
    6.600000000000e+01-9.375000000000e-01 5.094855078307e-09 2.896957096497e+00
   -4.656612873077e-08 7.066626218148e-03 8.162111043930e-06 5.153559530258e+03
    5.112000000000e+05 3.911554813385e-08-1.748246433367e+00 9.313225746155e-08
    9.340928932669e-01 2.055937500000e+02-9.937142219917e-01-8.134267396316e-09
    2.910835533698e-10 1.000000000000e+00 2.153000000000e+03 0.000000000000e+00
    2.400000000000e+00 0.000000000000e+00-1.816079020500e-08 6.600000000000e+01
    5.040000000000e+05 4.000000000000e+00
32 21  4 16 22  0  0.0 2.208445221186e-05 0.000000000000e+00 0.000000000000e+00
    9.500000000000e+01-1.481250000000e+01 4.733768609035e-09-1.674475145091e+00
   -7.711350917816e-07 4.861266701482e-03 6.254762411118e-06 5.153652851105e+03
    5.112000000000e+05 9.313225746155e-08-6.100498999870e-01-1.080334186554e-07
    9.572506377657e-01 2.595937500000e+02-2.385612047986e+00-8.008547873879e-09
   -1.571494030463e-10 1.000000000000e+00 2.153000000000e+03 0.000000000000e+00
    2.400000000000e+00 0.000000000000e+00 4.656612873077e-10 9.500000000000e+01
    5.040000000000e+05 4.000000000000e+00
21 21  4 16 22  0  0.0 1.114946790040e-04 2.842170943040e-12 0.000000000000e+00
    5.600000000000e+01-7.043750000000e+01 4.418398329740e-09-2.222039210109e+00
   -3.287568688393e-06 2.416098397225e-02 8.529052138329e-06 5.153701057434e+03
    5.112000000000e+05 8.009374141693e-08-2.770590450785e+00 4.637986421585e-07
    9.570479460770e-01 2.070625000000e+02-1.153737878705e+00-7.649247193278e-09
   -5.000208278745e-12 1.000000000000e+00 2.153000000000e+03 0.000000000000e+00
    2.400000000000e+00 0.000000000000e+00-1.024454832077e-08 5.600000000000e+01
    5.040000000000e+05 4.000000000000e+00
26 21  4 16 22  0  0.0 7.309205830097e-05 5.115907697473e-12 0.000000000000e+00
    8.800000000000e+01 8.787500000000e+01 4.883774857397e-09-6.344791616781e-01
    4.723668098450e-06 5.786372930743e-03 5.416572093964e-06 5.153794019699e+03
    5.112000000000e+05 9.685754776001e-08 1.448268893070e+00-7.450580596924e-09
    9.422085249384e-01 2.620937500000e+02 3.041519068163e-01-8.379991917443e-09
    2.075086435679e-10 1.000000000000e+00 2.153000000000e+03 0.000000000000e+00
    2.400000000000e+00 0.000000000000e+00 6.984919309616e-09 8.800000000000e+01
    5.040000000000e+05 4.000000000000e+00
23 21  4 16 22  0  0.0 1.130988821387e-04-2.160049916711e-12 0.000000000000e+00
    1.500000000000e+02-1.284375000000e+01 4.520545441720e-09 1.320329951282e+00
   -7.040798664093e-07 1.104813185520e-03 7.793307304382e-06 5.153648391724e+03
    5.112000000000e+05 4.842877388000e-08-1.676338342426e+00-2.235174179077e-08
    9.634211647815e-01 2.285937500000e+02 2.551080448798e+00-7.936402011571e-09
    2.389385241772e-10 1.000000000000e+00 2.153000000000e+03 0.000000000000e+00
    2.400000000000e+00 0.000000000000e+00-8.381903171539e-09 6.620000000000e+02
    5.040000000000e+05 4.000000000000e+00
18 21  4 16 22  0  0.0 3.516138531268e-04-1.136868377216e-13 0.000000000000e+00
    1.260000000000e+02-8.065625000000e+01 4.343038047824e-09 1.921337630693e+00
   -4.049390554428e-06 1.283572986722e-03 7.983297109604e-06 5.153673555374e+03
    5.112000000000e+05 6.891787052155e-08-2.675654899904e+00 2.793967723846e-08
    9.678700083794e-01 2.304687500000e+02 2.958401490325e+00-7.931758961027e-09
   -8.214627886510e-12 1.000000000000e+00 2.153000000000e+03 0.000000000000e+00
    2.400000000000e+00 0.000000000000e+00-8.381903171539e-09 3.820000000000e+02
    5.040000000000e+05 4.000000000000e+00
24 21  4 16 22  0  0.0 1.171836629510e-05 3.376499080332e-11 0.000000000000e+00
    3.000000000000e+00 2.615625000000e+01 4.886274961537e-09 2.054682907665e+00
    1.296401023865e-06 1.103308063466e-02 9.758397936821e-06 5.153738834381e+03
    5.112000000000e+05-2.458691596985e-07 3.748300245122e-01-1.676380634308e-07
    9.356225247994e-01 1.767812500000e+02 7.390075886667e-01-8.109980670390e-09
   -2.864405028253e-10 1.000000000000e+00 2.153000000000e+03 0.000000000000e+00
    2.400000000000e+00 6.300000000000e+01 2.793967723846e-09 3.000000000000e+00
    5.040000000000e+05 4.000000000000e+00
28 21  4 16 22  0  0.0 5.857148207724e-04-5.798028723802e-12 0.000000000000e+00
    8.100000000000e+01 1.040625000000e+02 4.190174537588e-09-1.696968411717e+00
    5.800276994705e-06 1.747737487312e-02 4.937872290611e-06 5.154319509506e+03
    5.112000000000e+05-8.940696716309e-08 1.584979692080e+00 4.377216100693e-07
    9.730362348191e-01 2.945937500000e+02-1.340843117326e+00-8.008190716145e-09
    2.300095808223e-10 1.000000000000e+00 2.153000000000e+03 0.000000000000e+00
    4.850000000000e+00 0.000000000000e+00-1.117587089539e-08 8.100000000000e+01
    5.040000000000e+05 4.000000000000e+00
